NORAD_CAT_ID,OBJECT_NAME,OBJECT_TYPE,EPOCH,MEAN_MOTION,ECCENTRICITY,INCLINATION,RA_OF_ASC_NODE,ARG_OF_PERICENTER,MEAN_ANOMALY,BSTAR,MEAN_MOTION_DOT,MEAN_MOTION_DDOT,TLE_LINE0,TLE_LINE1,TLE_LINE2,SEMIMAJOR_AXIS,PERIOD,APOGEE,PERIGEE,DECAYED
53027.0,STARLINK-4158,PAYLOAD,2024-07-12 22:34:22,15.08842622,0.0001368,53.2166,278.9488,96.1284,263.9864,0.00015439,2.17e-05,0.0,0 STARLINK-4158,1 53027U 22076AT  24194.94053430  .00002170  00000-0  15439-3 0  9997,2 53027  53.2166 278.9488 0001368  96.1284 263.9864 15.08842622111690,6917.872,95.437,540.684,538.791,0.0
53027.0,STARLINK-4158,PAYLOAD,2024-07-13 14:28:14,15.0883643,0.0001739,53.2163,275.9746,89.2425,270.8767,-1.477e-05,-5.23e-06,0.0,0 STARLINK-4158,1 53027U 22076AT  24195.60294004 -.00000523  00000-0 -14770-4 0  9995,2 53027  53.2163 275.9746 0001739  89.2425 270.8767 15.08836430111793,6917.891,95.438,540.959,538.553,0.0
53027.0,STARLINK-4158,PAYLOAD,2024-07-13 22:25:09,15.08850436,0.0001713,53.2167,274.4863,78.4177,281.7007,0.00021193,3.087e-05,0.0,0 STARLINK-4158,1 53027U 22076AT  24195.93413351  .00003087  00000-0  21193-3 0  9991,2 53027  53.2167 274.4863 0001713  78.4177 281.7007 15.08850436111843,6917.848,95.437,540.899,538.528,0.0
53027.0,STARLINK-4158,PAYLOAD,2024-07-14 12:43:37,15.08841043,0.0001468,53.2161,271.8131,87.7866,272.3295,0.00014404,2.005e-05,0.0,0 STARLINK-4158,1 53027U 22076AT  24196.53029733  .00002005  00000-0  14404-3 0  9991,2 53027  53.2161 271.8131 0001468  87.7866 272.3295 15.08841043111930,6917.877,95.437,540.758,538.727,0.0
53027.0,STARLINK-4158,PAYLOAD,2024-07-15 04:37:29,15.08828532,0.000135,53.2157,268.8366,92.1639,267.9507,1.934e-06,-2.57e-06,0.0,0 STARLINK-4158,1 53027U 22076AT  24197.19270320 -.00000257  00000-0  19340-5 0  9998,2 53027  53.2157 268.8366 0001350  92.1639 267.9507 15.08828532112507,6917.915,95.438,540.714,538.847,0.0
53027.0,STARLINK-4158,PAYLOAD,2024-07-15 12:34:24,15.08843238,0.000138,53.2144,267.3515,88.1878,271.9272,0.00015118,2.119e-05,0.0,0 STARLINK-4158,1 53027U 22076AT  24197.52389623  .00002119  00000-0  15118-3 0  9997,2 53027  53.2144 267.3515 0001380  88.1878 271.9272 15.08843238112555,6917.87,95.437,540.69,538.781,0.0
53027.0,STARLINK-4158,PAYLOAD,2024-07-15 22:06:43,15.08849272,0.0001365,53.2146,265.5671,91.599,268.5159,0.00045931,7.031e-05,0.0,0 STARLINK-4158,1 53027U 22076AT  24197.92133429  .00007031  00000-0  45931-3 0  9996,2 53027  53.2146 265.5671 0001365  91.5990 268.5159 15.08849272112141,6917.852,95.437,540.661,538.773,0.0
53027.0,STARLINK-4158,PAYLOAD,2024-07-16 10:49:48,15.08843681,0.000137,53.2148,263.1866,92.6452,267.4697,0.00060764,9.397e-05,0.0,0 STARLINK-4158,1 53027U 22076AT  24198.45125914  .00009397  00000-0  60764-3 0  9993,2 53027  53.2148 263.1866 0001370  92.6452 267.4697 15.08843681112697,6917.869,95.437,540.682,538.786,0.0
53027.0,STARLINK-4158,PAYLOAD,2024-07-17 10:40:36,15.08836312,0.0001298,53.2146,258.7286,79.3138,280.8,0.00014982,2.097e-05,0.0,0 STARLINK-4158,1 53027U 22076AT  24199.44486431  .00002097  00000-0  14982-3 0  9998,2 53027  53.2146 258.7286 0001298  79.3138 280.8000 15.08836312112840,6917.892,95.438,540.655,538.859,0.0
53027.0,STARLINK-4158,PAYLOAD,2024-07-18 10:31:23,15.08842016,0.000137,53.2152,254.2707,77.4275,282.687,0.00024729,3.65e-05,0.0,0 STARLINK-4158,1 53027U 22076AT  24200.43846642  .00003650  00000-0  24729-3 0  9990,2 53027  53.2152 254.2707 0001370  77.4275 282.6870 15.08842016112526,6917.874,95.437,540.687,538.791,0.0
53027.0,STARLINK-4158,PAYLOAD,2024-07-19 10:22:10,15.08841809,0.0001383,53.215,249.8053,81.2527,278.8622,0.00018732,2.695e-05,0.0,0 STARLINK-4158,1 53027U 22076AT  24201.43206673  .00002695  00000-0  18732-3 0  9990,2 53027  53.2150 249.8053 0001383  81.2527 278.8622 15.08841809113145,6917.875,95.437,540.697,538.783,0.0
53027.0,STARLINK-4158,PAYLOAD,2024-07-19 19:54:29,15.08847556,0.0001375,53.2149,248.0214,81.004,279.1108,0.00022017,3.219e-05,0.0,0 STARLINK-4158,1 53027U 22076AT  24201.82950314  .00003219  00000-0  22017-3 0  9995,2 53027  53.2149 248.0214 0001375  81.0040 279.1108 15.08847556112734,6917.857,95.437,540.673,538.771,0.0
53027.0,STARLINK-4158,PAYLOAD,2024-07-20 03:51:25,15.08833556,0.0001324,53.215,246.5365,88.6961,271.4183,-7.6835e-05,-1.51e-05,0.0,0 STARLINK-4158,1 53027U 22076AT  24202.16070816 -.00001510  00000-0 -76835-4 0  9995,2 53027  53.2150 246.5365 0001324  88.6961 271.4183 15.08833556113256,6917.9,95.438,540.681,538.849,0.0
53027.0,STARLINK-4158,PAYLOAD,2024-07-20 10:12:57,15.08835273,0.0001574,53.216,245.3496,105.336,254.7806,-1.3854e-05,-5.08e-06,0.0,0 STARLINK-4158,1 53027U 22076AT  24202.42566871 -.00000508  00000-0 -13854-4 0  9993,2 53027  53.2160 245.3496 0001574 105.3360 254.7806 15.08835273112822,6917.895,95.438,540.849,538.671,0.0
53027.0,STARLINK-4158,PAYLOAD,2024-07-20 19:45:16,15.08847526,0.0001446,53.2165,243.5628,93.5904,266.5254,0.00016023,2.264e-05,0.0,0 STARLINK-4158,1 53027U 22076AT  24202.82310248  .00002264  00000-0  16023-3 0  9991,2 53027  53.2165 243.5628 0001446  93.5904 266.5254 15.08847526113355,6917.857,95.437,540.723,538.722,0.0
53027.0,STARLINK-4158,PAYLOAD,2024-07-21 11:39:08,15.08837444,0.0001538,53.2161,240.5871,82.1138,278.0028,3.6109e-05,2.87e-06,0.0,0 STARLINK-4158,1 53027U 22076AT  24203.48551234  .00000287  00000-0  36109-4 0  9997,2 53027  53.2161 240.5871 0001538  82.1138 278.0028 15.08837444113459,6917.888,95.438,540.817,538.689,0.0
53027.0,STARLINK-4158,PAYLOAD,2024-07-22 11:29:54,15.08843313,0.0001627,53.2168,236.1268,85.5742,274.5436,0.00013141,1.804e-05,0.0,0 STARLINK-4158,1 53027U 22076AT  24204.47910555  .00001804  00000-0  13141-3 0  9998,2 53027  53.2168 236.1268 0001627  85.5742 274.5436 15.08843313113607,6917.87,95.437,540.861,538.61,0.0
53027.0,STARLINK-4158,PAYLOAD,2024-07-23 08:09:55,15.08840457,0.000144,53.2149,232.2608,91.0588,269.0569,0.00013416,1.848e-05,0.0,0 STARLINK-4158,1 53027U 22076AT  24205.34022605  .00001848  00000-0  13416-3 0  9998,2 53027  53.2149 232.2608 0001440  91.0588 269.0569 15.08840457113268,6917.879,95.438,540.74,538.748,0.0
53027.0,STARLINK-4158,PAYLOAD,2024-07-24 11:11:29,15.08837924,0.0001277,53.2148,227.2057,84.5037,275.61,-2.8508e-05,-7.42e-06,0.0,0 STARLINK-4158,1 53027U 22076AT  24206.46631116 -.00000742  00000-0 -28508-4 0  9998,2 53027  53.2148 227.2057 0001277  84.5037 275.6100 15.08837924113903,6917.887,95.438,540.635,538.868,0.0
53027.0,STARLINK-4158,PAYLOAD,2024-07-25 06:16:06,15.08840409,0.0001238,53.2146,223.6367,83.9088,276.2045,4.015e-05,3.51e-06,0.0,0 STARLINK-4158,1 53027U 22076AT  24207.26118853  .00000351  00000-0  40150-4 0  9996,2 53027  53.2146 223.6367 0001238  83.9088 276.2045 15.08840409113559,6917.879,95.438,540.601,538.888,0.0
53027.0,STARLINK-4158,PAYLOAD,2024-07-25 11:02:15,15.08843119,0.0001381,53.2146,222.745,83.3389,276.776,3.9902e-05,3.47e-06,0.0,0 STARLINK-4158,1 53027U 22076AT  24207.45990688  .00000347  00000-0  39902-4 0  9999,2 53027  53.2146 222.7450 0001381  83.3389 276.7760 15.08843119114055,6917.871,95.437,540.691,538.78,0.0
53027.0,STARLINK-4158,PAYLOAD,2024-07-26 04:31:30,15.0883467,0.0001276,53.215,219.4733,95.8231,264.2906,8.6783e-05,1.093e-05,0.0,0 STARLINK-4158,1 53027U 22076AT  24208.18855021  .00001093  00000-0  86783-4 0  9999,2 53027  53.2150 219.4733 0001276  95.8231 264.2906 15.08834670114162,6917.897,95.438,540.644,538.879,0.0
53027.0,STARLINK-4158,PAYLOAD,2024-07-26 06:06:53,15.08835646,0.0001296,53.2152,219.176,95.694,264.42,9.5412e-05,1.231e-05,0.0,0 STARLINK-4158,1 53027U 22076AT  24208.25478962  .00001231  00000-0  95412-4 0  9995,2 53027  53.2152 219.1760 0001296  95.6940 264.4200 15.08835646113700,6917.894,95.438,540.655,538.862,0.0
53027.0,STARLINK-4158,PAYLOAD,2024-07-26 17:14:35,15.08842238,0.0001218,53.2145,217.0949,83.7647,276.3484,8.1927e-05,1.016e-05,0.0,0 STARLINK-4158,1 53027U 22076AT  24208.71846626  .00001016  00000-0  81927-4 0  9999,2 53027  53.2145 217.0949 0001218  83.7647 276.3484 15.08842238114245,6917.874,95.437,540.581,538.896,0.0
53027.0,STARLINK-4158,PAYLOAD,2024-07-27 04:22:18,15.08835113,0.000137,53.2149,215.0139,88.3069,271.808,3.3615e-06,-2.34e-06,0.0,0 STARLINK-4158,1 53027U 22076AT  24209.18215427 -.00000234  00000-0  33615-5 0  9994,2 53027  53.2149 215.0139 0001370  88.3069 271.8080 15.08835113114310,6917.895,95.438,540.708,538.813,0.0
53027.0,STARLINK-4158,PAYLOAD,2024-07-27 05:57:41,15.08834855,0.0001367,53.2149,214.7165,88.1249,271.99,-5.6616e-08,-2.89e-06,0.0,0 STARLINK-4158,1 53027U 22076AT  24209.24839461 -.00000289  00000-0 -56616-7 0  9990,2 53027  53.2149 214.7165 0001367  88.1249 271.9900 15.08834855113851,6917.896,95.438,540.707,538.815,0.0
53027.0,STARLINK-4158,PAYLOAD,2024-07-27 10:43:50,15.08837198,0.0001386,53.215,213.8242,88.3283,271.7868,1.6777e-05,-2.1e-07,0.0,0 STARLINK-4158,1 53027U 22076AT  24209.44711288 -.00000021  00000-0  16777-4 0  9992,2 53027  53.2150 213.8242 0001386  88.3283 271.7868 15.08837198113887,6917.889,95.438,540.713,538.795,0.0
53027.0,STARLINK-4158,PAYLOAD,2024-07-28 05:48:28,15.0883959,0.0001506,53.2157,210.2556,106.6068,253.5089,3.2702e-05,2.33e-06,0.0,0 STARLINK-4158,1 53027U 22076AT  24210.24199102  .00000233  00000-0  32702-4 0  9997,2 53027  53.2157 210.2556 0001506 106.6068 253.5089 15.08839590114479,6917.882,95.438,540.788,538.705,0.0
53027.0,STARLINK-4158,PAYLOAD,2024-07-28 10:34:37,15.08839653,0.0001399,53.2152,209.3641,98.3684,261.7467,3.1772e-05,2.18e-06,0.0,0 STARLINK-4158,1 53027U 22076AT  24210.44071137  .00000218  00000-0  31772-4 0  9995,2 53027  53.2152 209.3641 0001399  98.3684 261.7467 15.08839653114032,6917.881,95.438,540.714,538.779,0.0
53027.0,STARLINK-4158,PAYLOAD,2024-07-29 05:39:14,15.08845706,0.0001726,53.215,205.7979,80.4005,279.7182,0.00019004,2.738e-05,0.0,0 STARLINK-4158,1 53027U 22076AT  24211.23558233  .00002738  00000-0  19004-3 0  9992,2 53027  53.2150 205.7979 0001726  80.4005 279.7182 15.08845706114621,6917.863,95.437,540.922,538.534,0.0
